CZ-4B R/B               
1 66989U 25289B   25344.60307110  .00055635  30614-5  28721-3 0  9996
2 66989  97.5247  49.7881 0151927  11.1182 349.3371 15.66312523   239
TJS-22                  
1 66990U 25290A   25344.29968571 -.00000038  00000+0  79788-1 0  9994
2 66990  20.1261 301.1464 6664534 180.6877 177.6237  2.15443148    32
CZ-3B R/B               
1 66991U 25290B   25344.28119881  .00018897  45621-6  43781-3 0  9998
2 66991  28.4645 302.5976 7242055 179.3847 182.8677  2.37676924    36
